{"features":[{"geometry":{"coordinates":[[[-125.208271,48.784216],[-125.102983,48.834354],[-125.013893,48.883909],[-124.953149,48.944587],[-125.021992,48.979683],[-125.164536,48.989782],[-125.327328,49.015285],[-125.444766,48.970646],[-125.524137,48.89243],[-125.40589,48.808758],[-125.208271,48.784216]]],"type":"Polygon"},"id":1,"properties":{"bbox":[-125.524137,48.7842163,-124.9531492,49.0152854],"draw_id":1,"gfw_id":1,"hasoverlappingfeatures":false,"ogc_fid":1,"value":1},"type":"Feature"}],"type":"FeatureCollection"}